satname,norad_id,inclination_deg,eccentricity,mean_motion_rev_per_day,perigee_km,apogee_km,l1,l2
STARLINK-1591,46045,53.1614,0.0001519,15.30201716,474.1689223563635,476.25096915848553,1 46045U 20055U   26087.14434023  .00004790  00000+0  17375-3 0  9990,2 46045  53.1614  40.9830 0001519 109.7211 250.3954 15.30201716311696
STARLINK-1524,46047,53.1629,0.000136,15.30215309,474.23731022093307,476.1014095508217,1 46047U 20055W   26087.79165611 -.00000861  00000+0 -16929-4 0  9999,2 46047  53.1629  25.1128 0001360 111.6117 248.5029 15.30215309311998
STARLINK-1527,46048,53.1616,0.0001202,15.30223249,474.3218883999907,475.96941754976615,1 46048U 20055X   26087.53673294  .00006154  00000+0  21959-3 0  9990,2 46048  53.1616  26.3949 0001202  83.1656 276.9482 15.30223249311939
STARLINK-1540,46051,53.1644,0.0001857,15.30188016,473.97817759265945,476.52352584078653,1 46051U 20055AA  26087.55990601  .00000864  00000+0  41325-4 0  9992,2 46051  53.1644  26.1918 0001857  98.8157 261.3054 15.30188016311972
STARLINK-1541,46052,53.1624,0.0002039,15.30193294,473.8376898300439,476.6324949693253,1 46052U 20055AB  26087.54937299 -.00002542  00000+0 -73726-4 0  9993,2 46052  53.1624  26.2848 0002039  86.5703 273.5531 15.30193294311933
STARLINK-1543,46053,53.1631,0.0001627,15.30198734,474.1038084730235,476.3338904664406,1 46053U 20055AC  26087.55569742 -.00000439  00000+0 -27014-5 0  9992,2 46053  53.1631  26.2788 0001627 104.2341 255.8840 15.30198734311966
STARLINK-1548,46054,53.1626,0.0001227,15.30210121,474.3439475132018,476.0257526952164,1 46054U 20055AD  26087.82432589 -.00001042  00000+0 -23042-4 0  9998,2 46054  53.1626  25.0345 0001227  90.6734 269.4407 15.30210121312008
STARLINK-1554,46055,53.1607,0.0001447,15.30214088,474.1813315556283,476.1646794712242,1 46055U 20055AE  26087.56097036  .00002275  00000+0  88873-4 0  9994,2 46055  53.1607  26.3813 0001447  86.7933 273.3234 15.30214088311965
STARLINK-1564,46058,53.1632,0.0001771,15.30192962,474.02235132613714,476.4498160723833,1 46058U 20055AH  26087.55893164  .00001532  00000+0  63861-4 0  9997,2 46058  53.1632  26.7203 0001771 109.8730 250.2462 15.30192962311957
STARLINK-1570,46059,53.1641,0.0001284,15.30198341,474.34005185702244,476.0999939405028,1 46059U 20055AJ  26087.84961135  .00003033  00000+0  11448-3 0  9995,2 46059  53.1641  24.9173 0001284  98.4542 261.6604 15.30198341311969
STARLINK-1572,46060,53.1614,0.0001418,15.30195456,474.2568297705084,476.20044426516597,1 46060U 20055AK  26087.53992949  .00012936  00000+0  44818-3 0  9999,2 46060  53.1614  26.5594 0001418  79.6696 280.4464 15.30195456311929
STARLINK-1573,46061,53.1611,0.0001347,15.30202922,474.2831995193483,476.12949021645545,1 46061U 20055AL  26087.83380293  .00005619  00000+0  20169-3 0  9999,2 46061  53.1611  24.9404 0001347  80.9488 279.1665 15.30202922312009
STARLINK-1577,46063,53.1617,0.0001033,15.30199321,474.5091453134846,475.9250482698817,1 46063U 20055AN  26087.53356255  .00002733  00000+0  10437-3 0  9990,2 46063  53.1617  26.3076 0001033 104.1237 255.9879 15.30199321311951
STARLINK-1583,46064,53.1621,0.0001483,15.30190322,474.2276099378487,476.26032273246346,1 46064U 20055AP  26087.24281560 -.00001780  00000+0 -47993-4 0  9996,2 46064  53.1621  27.6881 0001483  84.2439 275.8731 15.30190322311901
STARLINK-1525,46066,53.0571,0.0001525,15.30322525,473.8041758596719,475.89433666783225,1 46066U 20055AR  26087.84101355  .00073254  00000+0  24517-2 0  9995,2 46066  53.0571   8.1374 0001525 135.9368 224.1753 15.30322525312228
STARLINK-1536,46070,53.0575,0.0001367,15.08931285,538.5187451960201,540.4100174136693,1 46070U 20055AV  26087.91668981  .00013729  00000+0  87677-3 0  9999,2 46070  53.0575  10.2946 0001367 120.3719 204.4042 15.08931285  5773
STARLINK-1542,46073,53.0553,0.0001389,15.06416216,546.1999346681723,548.1237826911138,1 46073U 20055AY  26087.78429411  .00001595  00000+0  12592-3 0  9992,2 46073  53.0553  10.8991 0001389  87.0478 273.0670 15.06416216312188
STARLINK-1549,46074,53.0562,0.0002077,15.06535321,545.3585408469808,548.2351583681084,1 46074U 20055AZ  26087.76940186  .00017950  00000+0  12164-2 0  9994,2 46074  53.0562  10.9655 0002077  69.5606 290.5606 15.06535321312171
STARLINK-1551,46075,53.0564,0.0001689,15.06396978,546.0511270127245,548.3905128843035,1 46075U 20055BA  26087.19824164 -.00002157  00000+0 -12593-3 0  9991,2 46075  53.0564  13.5291 0001689  94.6007 265.5175 15.06396978312098
STARLINK-1552,46076,53.0563,0.0001618,15.06403958,546.0789078309626,548.3199466988262,1 46076U 20055BB  26087.48941644 -.00001051  00000+0 -51628-4 0  9992,2 46076  53.0563  12.2250 0001618 100.5303 259.5868 15.06403958312120
STARLINK-1559,46077,53.0281,0.0004191,15.31332893,468.9637176309079,474.7053637763256,1 46077U 20055BC  26086.97544818  .00052299  00000+0  17042-2 0  9996,2 46077  53.0281 348.7071 0004191 103.9928 256.1538 15.31332893312387
STARLINK-1566,46079,53.056,0.000148,15.06399376,546.188518539444,548.2384222786859,1 46079U 20055BE  26087.77323362  .00000504  00000+0  52755-4 0  9990,2 46079  53.0560  10.9489 0001480  81.0838 279.0319 15.06399376312184
STARLINK-1568,46080,53.0609,0.0005508,15.47983358,418.8802864050158,426.3720070874724,1 46080U 20055BF  26087.87159688  .00042086  00000+0  79629-3 0  9990,2 46080  53.0609 301.3311 0005508 179.7882 180.3129 15.47983358313166
STARLINK-1578,46082,53.0563,0.0001885,15.07188928,543.4896894046151,546.0996346411976,1 46082U 20055BH  26087.78713646  .00097984  00000+0  63690-2 0  9999,2 46082  53.0563  10.8830 0001885  75.3095 284.8103 15.07188928312185
STARLINK-1579,46083,53.0572,0.0001654,15.06403481,546.0554383083045,548.3463400820501,1 46083U 20055BJ  26087.49215861  .00000194  00000+0  31905-4 0  9997,2 46083  53.0572  12.2032 0001654  99.8366 260.2810 15.06403481312133
STARLINK-1585,46117,53.0344,0.0007466,15.97961809,275.1033429433528,285.0453841514018,1 46117U 20057A   26087.91668981  .00624838  18007-3  13390-2 0  9992,2 46117  53.0344 149.1014 0007466  14.6263 243.9842 15.97961809  5906
STARLINK-1593,46119,53.0406,0.0004827,15.81881618,321.8841011601389,328.35542523933145,1 46119U 20057C   26087.91668981  .00217438  00000+0  10279-2 0  9991,2 46119  53.0406 174.1674 0004827 357.3664 315.3344 15.81881618  5922
STARLINK-1621,46127,53.0423,0.0007867,15.85574078,309.4434986415563,319.9740221609709,1 46127U 20057L   26087.91668981  .00287047  00000+0  11281-2 0  9997,2 46127  53.0423 147.0060 0007867 354.4703 142.6579 15.85574078  6034
